[{"OBJECT_NAME":"NUSAT-50 (NANCY ROMAN)","OBJECT_ID":"2024-149AB","EPOCH":"2026-03-09T19:15:16.765632","MEAN_MOTION":15.29713355,"ECCENTRICITY":0.00025229,"INCLINATION":97.3817,"RA_OF_ASC_NODE":150.7693,"ARG_OF_PERICENTER":238.0469,"MEAN_ANOMALY":122.0527,"EPHEMERIS_TYPE":0,"CLASSIFICATION_TYPE":"U","NORAD_CAT_ID":60493,"ELEMENT_SET_NO":999,"REV_AT_EPOCH":8693,"BSTAR":0.0004225155,"MEAN_MOTION_DOT":0.00012094,"MEAN_MOTION_DDOT":0},{"OBJECT_NAME":"STARLINK-35226","OBJECT_ID":"2025-198A","EPOCH":"2026-03-09T19:35:59.322912","MEAN_MOTION":15.30197756,"ECCENTRICITY":0.00010279,"INCLINATION":53.1595,"RA_OF_ASC_NODE":270.1174,"ARG_OF_PERICENTER":77.2929,"MEAN_ANOMALY":282.8187,"EPHEMERIS_TYPE":0,"CLASSIFICATION_TYPE":"U","NORAD_CAT_ID":65492,"ELEMENT_SET_NO":999,"REV_AT_EPOCH":2864,"BSTAR":0.00057996317,"MEAN_MOTION_DOT":0.00016855,"MEAN_MOTION_DDOT":0}]
